XRISM                   
1 57800U 23137A   26071.81036378  .00005698  00000+0  32222-3 0  9999
2 57800  31.0011 263.4786 0007902  70.1790 289.9700 15.11538051138261
ACS3                    
1 59588U 24077B   26071.73799039  .00023678  00000+0  18958-1 0  9995
2 59588  97.2052  12.1643 0062273  69.1869 291.5951 13.89757757 94620
SZ-21 MODULE            
1 66515U 25246C   26071.68367939  .00040419  00000+0  34395-3 0  9993
2 66515  41.4730 184.9262 0001119 307.7188  52.3552 15.68803443 18544
